EUTELSAT 16A            
1 37836U 11057A   26012.23772458  .00000121  00000+0  00000+0 0  9992
2 37836   0.0657  31.6278 0005608 262.1681 279.5077  1.00273163  5767
VIASAT-1                
1 37843U 11059A   26011.99773173 -.00000007  00000+0  00000+0 0  9993
2 37843   0.0149   3.0956 0001986 289.9548  62.4932  1.00272638 45759
ASIASAT 7               
1 37933U 11069A   26012.25531802  .00000000  00000+0  00000+0 0  9997
2 37933   0.0116  41.7099 0001055 243.4374  24.0256  1.00266877 43297
BEIDOU-2 IGSO-5         
1 37948U 11073A   26011.68263694 -.00000171  00000+0  00000+0 0  9995
2 37948  47.9620 273.4865 0108928 222.0094 315.8530  1.00284787 51562
LUCH-5A                 
1 37951U 11074B   26011.91097786 -.00000041  00000+0  00000+0 0  9999
2 37951   8.3564  76.1351 0004910 206.9100 323.2008  1.00271059 51489
NIGCOMSAT 1R            
1 38014U 11077A   26012.19558424  .00000162  00000+0  00000+0 0  9998
2 38014   0.0353 125.7175 0004096 181.5007 277.3570  1.00270610 51394
WGS F4 (USA 233)        
1 38070U 12003A   26012.10919712 -.00000198  00000+0  00000+0 0  9992
2 38070   0.0149  78.9197 0000378 249.6704 270.7040  1.00272147 42588
SES-4                   
1 38087U 12007A   26012.23018453 -.00000151  00000+0  00000+0 0  9999
2 38087   0.0171  16.9242 0002376 265.6281 250.0359  1.00269912 50660
BEIDOU-2 G5             
1 38091U 12008A   26012.17480419  .00000070  00000+0  00000+0 0  9992
2 38091   3.1852  70.5989 0013655 236.2912 286.4689  1.00275275 50800
MUOS-1                  
1 38093U 12009A   26012.30095000 -.00000114  00000+0  00000+0 0  9998
2 38093   5.1570  47.2005 0052888 356.8012  76.1085  1.00273247 50881
INTELSAT 22 (IS-22)     
1 38098U 12011A   26012.14628137  .00000000  00000+0  00000+0 0  9994
2 38098   0.0416  73.4742 0001670 235.7044 287.2274  1.00271264  5625
APSTAR-7                
1 38107U 12013A   26012.15441914 -.00000084  00000+0  00000+0 0  9997
2 38107   0.0190 102.6671 0002585 196.9043 304.1470  1.00272063 50247
YAHSAT 1B               
1 38245U 12016A   26012.24396462  .00000144  00000+0  00000+0 0  9996
2 38245   0.0622  90.1202 0003416 222.3404 294.6901  1.00270780 44047
AEHF-2 (USA 235)        
1 38254U 12019A   26011.94599140 -.00000123  00000+0  00000+0 0  9991
2 38254   6.2885  58.6296 0003706 228.7638 148.1234  1.00272904  5420
JCSAT-13                
1 38331U 12023A   26012.04515006 -.00000339  00000+0  00000+0 0  9992
2 38331   0.0169  46.1936 0002008 241.5156 324.0781  1.00272245 49976
VINASAT-2               
1 38332U 12023B   26012.26069139 -.00000311  00000+0  00000+0 0  9998
2 38332   0.0115  10.4607 0002547 298.4583  28.5161  1.00271678 45096
NIMIQ 6                 
1 38342U 12026A   26012.21649110 -.00000156  00000+0  00000+0 0  9997
2 38342   0.0096 337.4814 0002686 319.4205 161.6307  1.00270970 48858
ZHONGXING-2A            
1 38352U 12028A   26012.04003669 -.00000277  00000+0  00000+0 0  9998
2 38352   1.0515  86.1459 0002400 199.3628 298.6833  1.00272466 49732
INTELSAT 19 (IS-19)     
1 38356U 12030A   26012.28980307  .00000000  00000+0  00000+0 0  9997
2 38356   0.0210  32.8975 0002849 268.7914  80.4243  1.00271006 48880
ECHOSTAR 17             
1 38551U 12035A   26011.85655085 -.00000059  00000+0  00000+0 0  9998
2 38551   0.0173  46.6003 0001942 241.1310  24.8707  1.00272106 49495
METEOSAT-10 (MSG-3)     
1 38552U 12035B   26012.23460456  .00000007  00000+0  00000+0 0  9990
2 38552   4.3004  61.6441 0001871 281.1525 213.4437  1.00270451 49297
SES-5                   
1 38652U 12036A   26012.09350284  .00000051  00000+0  00000+0 0  9992
2 38652   0.0588 302.9178 0002030 352.7523 214.5451  1.00272339 42891
INTELSAT 20 (IS-20)     
1 38740U 12043A   26012.17679754 -.00000007  00000+0  00000+0 0  9995
2 38740   0.0203  79.4628 0001762  92.6491  71.6945  1.00271047 49188
HYLAS 2                 
1 38741U 12043B   26012.20559285 -.00000242  00000+0  00000+0 0  9997
2 38741   2.0254  83.0517 0002698 223.9046 166.1767  1.00272092 49216
INTELSAT 21 (IS-21)     
1 38749U 12045A   26012.22307781 -.00000268  00000+0  00000+0 0  9999
2 38749   0.0346 269.8585 0001612  16.3339 207.8245  1.00272344 48962
ASTRA 2F                
1 38778U 12051A   26012.24015126  .00000167  00000+0  00000+0 0  9996
2 38778   0.0910 257.0520 0003311 359.4232 329.9049  1.00269383 39574
GSAT-10                 
1 38779U 12051B   26012.10833045 -.00000148  00000+0  00000+0 0  9990
2 38779   0.1028 267.5001 0002207 203.1914 122.9009  1.00272047 48535
INTELSAT 23 (IS-23)     
1 38867U 12057A   26012.22403115  .00000000  00000+0  00000+0 0  9994
2 38867   0.0223  52.4406 0001253 265.8884 181.0598  1.00272510 48398
BEIDOU-2 G6             
1 38953U 12059A   26012.10850378 -.00000162  00000+0  00000+0 0  9996
2 38953   4.0266  75.2108 0008977 293.7674 225.7051  1.00271915 48347
LUCH-5B                 
1 38977U 12061A   26011.87466429 -.00000129  00000+0  00000+0 0  9991
2 38977  10.1463  51.4185 0006071 206.1796 152.3581  1.00272532 48032
YAMAL 300K              
1 38978U 12061B   26012.29432932  .00000089  00000+0  00000+0 0  9995
2 38978   0.0242  84.6821 0000315 294.4941  21.5211  1.00274220 48064
STAR ONE C3             
1 38991U 12062A   26012.14837068 -.00000232  00000+0  00000+0 0  9995
2 38991   0.0179  46.2744 0002044 257.9321 145.8580  1.00272429 48207
EUTELSAT 21B            
1 38992U 12062B   26012.23885125  .00000147  00000+0  00000+0 0  9997
2 38992   0.0736  27.5628 0003147 269.5423 282.2042  1.00273509 48262
ECHOSTAR 16             
1 39008U 12065A   26012.07973026 -.00000265  00000+0  00000+0 0  9991
2 39008   0.0167  49.8812 0001994 243.7607 145.1223  1.00271532 48067
ZHONGXING-12            
1 39017U 12067A   26012.10919712 -.00000190  00000+0  00000+0 0  9996
2 39017   0.0267  99.3248 0003521 195.5740 303.4954  1.00273250 47946
EUTELSAT 70B            
1 39020U 12069A   26012.17714420 -.00000026  00000+0  00000+0 0  9996
2 39020   0.0613 354.2104 0003773 274.2169 337.5031  1.00270967 47944
YAMAL 402               
1 39022U 12070A   26012.24543796  .00000103  00000+0  00000+0 0  9999
2 39022   0.8656  86.3663 0003996 210.1345 318.4907  1.00271809 47830
SKYNET 5D               
1 39034U 12075A   26012.24500463  .00000117  00000+0  00000+0 0  9996
2 39034   0.0700 359.3874 0003794 293.8138 319.4496  1.00270964 47594
MEXSAT 3                
1 39035U 12075B   26012.30717434 -.00000008  00000+0  00000+0 0  9992
2 39035   0.0356  96.6573 0001533 178.7403 192.1663  1.00272251  5490
TDRS 11                 
1 39070U 13004A   26012.29528793  .00000094  00000+0  00000+0 0  9994
2 39070   3.2961  28.3421 0002331 332.9279  42.3641  1.00272660 45133
AMAZONAS 3              
1 39078U 13006A   26012.22247113 -.00000265  00000+0  00000+0 0  9992
2 39078   0.0530 230.6981 0004244  37.9164 222.1826  1.00272790 43356
AZERSPACE 1             
1 39079U 13006B   26012.19558424  .00000151  00000+0  00000+0 0  9992
2 39079   0.0187 303.7667 0001836  19.1312 265.1894  1.00269764 47240
SBIRS GEO-2 (USA 241)   
1 39120U 13011A   26012.08198361 -.00000273  00000+0  00000+0 0  9999
2 39120   4.1514  52.2965 0002341 239.1234 159.8655  1.00271323 46979
EUTELSAT 117 WEST A     
1 39122U 13012A   26012.30536461  .00000005  00000+0  00000+0 0  9996
2 39122   0.0340 292.7475 0002825   6.6572 165.5032  1.00271519 46878
ANIK G1                 
1 39127U 13014A   26012.30296912 -.00000057  00000+0  00000+0 0  9995
2 39127   0.0185 298.5073 0003364 346.8143 188.2337  1.00272971 46693
ZHONGXING-11            
1 39157U 13020A   26012.11127713 -.00000273  00000+0  00000+0 0  9996
2 39157   0.0106 350.4682 0002776 301.2806 317.8235  1.00270724 46332
EUTELSAT 7B             
1 39163U 13022A   26012.09350284  .00000066  00000+0  00000+0 0  9992
2 39163   0.0717 336.5301 0005387 355.5711 180.1471  1.00275226 46388
WGS F5 (USA 243)        
1 39168U 13024A   26011.51080296 -.00000269  00000+0  00000+0 0  9994
2 39168   0.0174  65.4806 0000397 338.6498 198.2710  1.00271893 45604
SES-6                   
1 39172U 13026A   26012.22654450 -.00000244  00000+0  00000+0 0  9992
2 39172   0.0519 287.6280 0002180 354.7002 230.4390  1.00272716 46168
IRNSS-1A                
1 39199U 13034A   26005.75415289  .00000057  00000+0  00000+0 0  9996
2 39199  35.3611  66.2058 0022999 210.9427 154.6377  1.00277626 45749
MUOS-2                  
1 39206U 13036A   26012.28856374  .00000001  00000+0  00000+0 0  9996
2 39206   4.6845  45.2017 0053369 181.8013 160.7187  1.00268449 45627
ALPHASAT                
1 39215U 13038A   26012.23945793  .00000149  00000+0  00000+0 0  9990
2 39215   2.9715   2.6297 0001905 294.6730 285.4807  1.00272955 42458
INSAT-3D                
1 39216U 13038B   26012.26025806 -.00000323  00000+0  00000+0 0  9993
2 39216   1.5240  84.6327 0001822 166.4470  83.8903  1.00271291 45515
WGS F6 (USA 244)        
1 39222U 13041A   26011.70846378  .00000105  00000+0  00000+0 0  9994
2 39222   0.0169  58.5070 0000278 311.5415 221.0054  1.00273293 44490
ES'HAIL 1               
1 39233U 13044A   26012.23963126  .00000161  00000+0  00000+0 0  9991
2 39233   0.0496 345.6166 0002438 318.2541 279.6399  1.00276698 45062
GSAT-7                  
1 39234U 13044B   26012.10651044 -.00000060  00000+0  00000+0 0  9990
2 39234   0.0586  90.2271 0007429 187.1806 306.5153  1.00272177 43698
AMOS-4                  
1 39237U 13045A   26012.14628137  .00000025  00000+0  00000+0 0  9995
2 39237   0.0196  75.5549 0002703 227.3785 286.3546  1.00271713 45390
AEHF-3 (USA 246)        
1 39256U 13050A   26012.30755924  .00000042  00000+0  00000+0 0  9994
2 39256   4.9077  68.6218 0094368 185.9060 203.7895  1.00268551 44093
ASTRA 2E                
1 39285U 13056A   26012.24015126  .00000168  00000+0  00000+0 0  9997
2 39285   0.0568  17.6550 0002232 275.2046 293.8148  1.00272005 44850
